STARLINK-2674           
1 48354U 21038B   25300.10854833  .00007227  00000+0  50359-3 0  9992
2 48354  53.0549 241.2878 0001517  88.8625 271.2538 15.06396342246891
STARLINK-2635           
1 48355U 21038C   25300.03851556  .00015488  00000+0  10560-2 0  9991
2 48355  53.0539 241.5996 0001770 102.1889 257.9298 15.06412465246886
STARLINK-2637           
1 48356U 21038D   25300.03482119  .00011192  00000+0  76886-3 0  9999
2 48356  53.0542 241.6195 0001471  93.5187 266.5970 15.06410238246884
STARLINK-2636           
1 48357U 21038E   25300.13807968  .00012268  00000+0  84065-3 0  9997
2 48357  53.0543 241.5790 0001460  94.8606 265.2550 15.06418272246891
STARLINK-2624           
1 48358U 21038F   25300.16011653  .00014573  00000+0  99359-3 0  9992
2 48358  53.0546 241.0563 0001818  81.1246 278.9949 15.06459281246892
STARLINK-2628           
1 48359U 21038G   25300.15647357  .00014208  00000+0  97128-3 0  9995
2 48359  53.0538 241.0729 0001401 103.9346 256.1799 15.06382848246895
STARLINK-2622           
1 48360U 21038H   25300.15277964  .00010046  00000+0  69224-3 0  9992
2 48360  53.0538 241.0845 0001727  82.1362 277.9823 15.06407124246897
STARLINK-2591           
1 48361U 21038J   25300.14908334  .00013078  00000+0  89454-3 0  9999
2 48361  53.0539 241.1030 0001636 102.0053 258.1119 15.06430026246890
STARLINK-2578           
1 48362U 21038K   25300.11593021  .00012280  00000+0  84149-3 0  9990
2 48362  53.0546 241.3401 0001701  86.3831 273.7352 15.06415549246899
STARLINK-2626           
1 48363U 21038L   25300.33336806  .00117450  00000+0  12853-2 0  9998
2 48363  53.0523 170.1372 0004219 201.3896  97.2067 15.62439015  5899
STARLINK-2611           
1 48364U 21038M   25300.13667143  .00014492  00000+0  98963-3 0  9997
2 48364  53.0534 236.3219 0001494  92.5418 267.5742 15.06405591246966
STARLINK-2608           
1 48365U 21038N   25300.09978267  .00009821  00000+0  67700-3 0  9990
2 48365  53.0535 236.3238 0001316  98.3217 261.7921 15.06415006246960
STARLINK-2643           
1 48367U 21038Q   25300.01731218  .00005484  00000+0  38669-3 0  9990
2 48367  53.0532 231.6951 0001625 103.4588 256.6582 15.06405292247010
STARLINK-2623           
1 48368U 21038R   25299.99523904 -.00001000  00000+0 -48253-4 0  9999
2 48368  53.0523 232.0733 0001561  80.0660 280.0505 15.06388300247010
STARLINK-2621           
1 48370U 21038T   25300.07629266  .00001224  00000+0  10112-3 0  9990
2 48370  53.0540 231.4356 0001889 101.4503 258.6698 15.06389337247029
STARLINK-2589           
1 48371U 21038U   25300.07260175  .00002042  00000+0  15596-3 0  9991
2 48371  53.0535 231.4489 0001559  94.2395 265.8772 15.06394547247025
