[{"OBJECT_NAME":"STARLINK-2674","OBJECT_ID":"2021-038B","EPOCH":"2025-10-27T02:36:18.575712","MEAN_MOTION":15.06396342,"ECCENTRICITY":0.00015178,"INCLINATION":53.0549,"RA_OF_ASC_NODE":241.2878,"ARG_OF_PERICENTER":88.8625,"MEAN_ANOMALY":271.2538,"EPHEMERIS_TYPE":0,"CLASSIFICATION_TYPE":"U","NORAD_CAT_ID":48354,"ELEMENT_SET_NO":999,"REV_AT_EPOCH":24689,"BSTAR":0.00050358818,"MEAN_MOTION_DOT":7.227e-5,"MEAN_MOTION_DDOT":0},{"OBJECT_NAME":"STARLINK-2635","OBJECT_ID":"2021-038C","EPOCH":"2025-10-27T00:55:27.744384","MEAN_MOTION":15.06412465,"ECCENTRICITY":0.00017701,"INCLINATION":53.0539,"RA_OF_ASC_NODE":241.5996,"ARG_OF_PERICENTER":102.1889,"MEAN_ANOMALY":257.9298,"EPHEMERIS_TYPE":0,"CLASSIFICATION_TYPE":"U","NORAD_CAT_ID":48355,"ELEMENT_SET_NO":999,"REV_AT_EPOCH":24688,"BSTAR":0.0010560263,"MEAN_MOTION_DOT":0.00015488,"MEAN_MOTION_DDOT":0},{"OBJECT_NAME":"STARLINK-2637","OBJECT_ID":"2021-038D","EPOCH":"2025-10-27T00:50:08.550816","MEAN_MOTION":15.06410238,"ECCENTRICITY":0.00014717,"INCLINATION":53.0542,"RA_OF_ASC_NODE":241.6195,"ARG_OF_PERICENTER":93.5187,"MEAN_ANOMALY":266.597,"EPHEMERIS_TYPE":0,"CLASSIFICATION_TYPE":"U","NORAD_CAT_ID":48356,"ELEMENT_SET_NO":999,"REV_AT_EPOCH":24688,"BSTAR":0.00076885535,"MEAN_MOTION_DOT":0.00011192,"MEAN_MOTION_DDOT":0},{"OBJECT_NAME":"STARLINK-2636","OBJECT_ID":"2021-038E","EPOCH":"2025-10-27T03:18:50.084352","MEAN_MOTION":15.06418272,"ECCENTRICITY":0.00014604,"INCLINATION":53.0543,"RA_OF_ASC_NODE":241.579,"ARG_OF_PERICENTER":94.8606,"MEAN_ANOMALY":265.255,"EPHEMERIS_TYPE":0,"CLASSIFICATION_TYPE":"U","NORAD_CAT_ID":48357,"ELEMENT_SET_NO":999,"REV_AT_EPOCH":24689,"BSTAR":0.00084065381,"MEAN_MOTION_DOT":0.00012268,"MEAN_MOTION_DDOT":0},{"OBJECT_NAME":"STARLINK-2624","OBJECT_ID":"2021-038F","EPOCH":"2025-10-27T03:50:34.068192","MEAN_MOTION":15.06459281,"ECCENTRICITY":0.00018186,"INCLINATION":53.0546,"RA_OF_ASC_NODE":241.0563,"ARG_OF_PERICENTER":81.1246,"MEAN_ANOMALY":278.9949,"EPHEMERIS_TYPE":0,"CLASSIFICATION_TYPE":"U","NORAD_CAT_ID":48358,"ELEMENT_SET_NO":999,"REV_AT_EPOCH":24689,"BSTAR":0.00099359459,"MEAN_MOTION_DOT":0.00014573,"MEAN_MOTION_DDOT":0},{"OBJECT_NAME":"STARLINK-2628","OBJECT_ID":"2021-038G","EPOCH":"2025-10-27T03:45:19.316448","MEAN_MOTION":15.06382848,"ECCENTRICITY":0.00014015,"INCLINATION":53.0538,"RA_OF_ASC_NODE":241.0729,"ARG_OF_PERICENTER":103.9346,"MEAN_ANOMALY":256.1799,"EPHEMERIS_TYPE":0,"CLASSIFICATION_TYPE":"U","NORAD_CAT_ID":48359,"ELEMENT_SET_NO":999,"REV_AT_EPOCH":24689,"BSTAR":0.00097127781,"MEAN_MOTION_DOT":0.00014208,"MEAN_MOTION_DDOT":0},{"OBJECT_NAME":"STARLINK-2622","OBJECT_ID":"2021-038H","EPOCH":"2025-10-27T03:40:00.160896","MEAN_MOTION":15.06407124,"ECCENTRICITY":0.00017279,"INCLINATION":53.0538,"RA_OF_ASC_NODE":241.0845,"ARG_OF_PERICENTER":82.1362,"MEAN_ANOMALY":277.9823,"EPHEMERIS_TYPE":0,"CLASSIFICATION_TYPE":"U","NORAD_CAT_ID":48360,"ELEMENT_SET_NO":999,"REV_AT_EPOCH":24689,"BSTAR":0.00069223737,"MEAN_MOTION_DOT":0.00010046,"MEAN_MOTION_DDOT":0},{"OBJECT_NAME":"STARLINK-2591","OBJECT_ID":"2021-038J","EPOCH":"2025-10-27T03:34:40.800576","MEAN_MOTION":15.06430026,"ECCENTRICITY":0.00016361,"INCLINATION":53.0539,"RA_OF_ASC_NODE":241.103,"ARG_OF_PERICENTER":102.0053,"MEAN_ANOMALY":258.1119,"EPHEMERIS_TYPE":0,"CLASSIFICATION_TYPE":"U","NORAD_CAT_ID":48361,"ELEMENT_SET_NO":999,"REV_AT_EPOCH":24689,"BSTAR":0.00089454067,"MEAN_MOTION_DOT":0.00013078,"MEAN_MOTION_DDOT":0},{"OBJECT_NAME":"STARLINK-2578","OBJECT_ID":"2021-038K","EPOCH":"2025-10-27T02:46:56.370144","MEAN_MOTION":15.06415549,"ECCENTRICITY":0.00017014,"INCLINATION":53.0546,"RA_OF_ASC_NODE":241.3401,"ARG_OF_PERICENTER":86.3831,"MEAN_ANOMALY":273.7352,"EPHEMERIS_TYPE":0,"CLASSIFICATION_TYPE":"U","NORAD_CAT_ID":48362,"ELEMENT_SET_NO":999,"REV_AT_EPOCH":24689,"BSTAR":0.00084148723,"MEAN_MOTION_DOT":0.0001228,"MEAN_MOTION_DDOT":0},{"OBJECT_NAME":"STARLINK-2626","OBJECT_ID":"2021-038L","EPOCH":"2025-10-27T08:00:03.000384","MEAN_MOTION":15.62439015,"ECCENTRICITY":0.00042193,"INCLINATION":53.0523,"RA_OF_ASC_NODE":170.1372,"ARG_OF_PERICENTER":201.3896,"MEAN_ANOMALY":97.2067,"EPHEMERIS_TYPE":0,"CLASSIFICATION_TYPE":"U","NORAD_CAT_ID":48363,"ELEMENT_SET_NO":999,"REV_AT_EPOCH":589,"BSTAR":0.0012853489,"MEAN_MOTION_DOT":0.0011745,"MEAN_MOTION_DDOT":0},{"OBJECT_NAME":"STARLINK-2611","OBJECT_ID":"2021-038M","EPOCH":"2025-10-27T03:16:48.411552","MEAN_MOTION":15.06405591,"ECCENTRICITY":0.0001494,"INCLINATION":53.0534,"RA_OF_ASC_NODE":236.3219,"ARG_OF_PERICENTER":92.5418,"MEAN_ANOMALY":267.5742,"EPHEMERIS_TYPE":0,"CLASSIFICATION_TYPE":"U","NORAD_CAT_ID":48364,"ELEMENT_SET_NO":999,"REV_AT_EPOCH":24696,"BSTAR":0.00098962802,"MEAN_MOTION_DOT":0.00014492,"MEAN_MOTION_DDOT":0},{"OBJECT_NAME":"STARLINK-2608","OBJECT_ID":"2021-038N","EPOCH":"2025-10-27T02:23:41.222688","MEAN_MOTION":15.06415006,"ECCENTRICITY":0.0001316,"INCLINATION":53.0535,"RA_OF_ASC_NODE":236.3238,"ARG_OF_PERICENTER":98.3217,"MEAN_ANOMALY":261.7921,"EPHEMERIS_TYPE":0,"CLASSIFICATION_TYPE":"U","NORAD_CAT_ID":48365,"ELEMENT_SET_NO":999,"REV_AT_EPOCH":24696,"BSTAR":0.00067699991,"MEAN_MOTION_DOT":9.821e-5,"MEAN_MOTION_DDOT":0},{"OBJECT_NAME":"STARLINK-2643","OBJECT_ID":"2021-038Q","EPOCH":"2025-10-27T00:24:55.772352","MEAN_MOTION":15.06405292,"ECCENTRICITY":0.0001625,"INCLINATION":53.0532,"RA_OF_ASC_NODE":231.6951,"ARG_OF_PERICENTER":103.4588,"MEAN_ANOMALY":256.6582,"EPHEMERIS_TYPE":0,"CLASSIFICATION_TYPE":"U","NORAD_CAT_ID":48367,"ELEMENT_SET_NO":999,"REV_AT_EPOCH":24701,"BSTAR":0.00038669497,"MEAN_MOTION_DOT":5.484e-5,"MEAN_MOTION_DDOT":0},{"OBJECT_NAME":"STARLINK-2623","OBJECT_ID":"2021-038R","EPOCH":"2025-10-26T23:53:08.653056","MEAN_MOTION":15.063883,"ECCENTRICITY":0.00015619,"INCLINATION":53.0523,"RA_OF_ASC_NODE":232.0733,"ARG_OF_PERICENTER":80.066,"MEAN_ANOMALY":280.0505,"EPHEMERIS_TYPE":0,"CLASSIFICATION_TYPE":"U","NORAD_CAT_ID":48368,"ELEMENT_SET_NO":999,"REV_AT_EPOCH":24701,"BSTAR":-4.8253172e-5,"MEAN_MOTION_DOT":-1.0e-5,"MEAN_MOTION_DDOT":0},{"OBJECT_NAME":"STARLINK-2621","OBJECT_ID":"2021-038T","EPOCH":"2025-10-27T01:49:51.685824","MEAN_MOTION":15.06389337,"ECCENTRICITY":0.00018894,"INCLINATION":53.054,"RA_OF_ASC_NODE":231.4356,"ARG_OF_PERICENTER":101.4503,"MEAN_ANOMALY":258.6698,"EPHEMERIS_TYPE":0,"CLASSIFICATION_TYPE":"U","NORAD_CAT_ID":48370,"ELEMENT_SET_NO":999,"REV_AT_EPOCH":24702,"BSTAR":0.00010111545,"MEAN_MOTION_DOT":1.224e-5,"MEAN_MOTION_DDOT":0},{"OBJECT_NAME":"STARLINK-2589","OBJECT_ID":"2021-038U","EPOCH":"2025-10-27T01:44:32.791200","MEAN_MOTION":15.06394547,"ECCENTRICITY":0.00015596,"INCLINATION":53.0535,"RA_OF_ASC_NODE":231.4489,"ARG_OF_PERICENTER":94.2395,"MEAN_ANOMALY":265.8772,"EPHEMERIS_TYPE":0,"CLASSIFICATION_TYPE":"U","NORAD_CAT_ID":48371,"ELEMENT_SET_NO":999,"REV_AT_EPOCH":24702,"BSTAR":0.00015595934,"MEAN_MOTION_DOT":2.042e-5,"MEAN_MOTION_DDOT":0}]
